[{"OBJECT_NAME":"COSMOS 2550","OBJECT_ID":"2021-056A","EPOCH":"2026-03-08T11:22:34.326624","MEAN_MOTION":15.33829151,"ECCENTRICITY":0.00083692,"INCLINATION":67.1451,"RA_OF_ASC_NODE":44.6088,"ARG_OF_PERICENTER":269.6014,"MEAN_ANOMALY":90.4182,"EPHEMERIS_TYPE":0,"CLASSIFICATION_TYPE":"U","NORAD_CAT_ID":48865,"ELEMENT_SET_NO":999,"REV_AT_EPOCH":26327,"BSTAR":-1.3338e-8,"MEAN_MOTION_DOT":-1.92e-6,"MEAN_MOTION_DDOT":0},{"OBJECT_NAME":"STARLINK-36179","OBJECT_ID":"2025-299T","EPOCH":"2026-03-09T14:33:51.848640","MEAN_MOTION":15.36441167,"ECCENTRICITY":0.00016869,"INCLINATION":43.0006,"RA_OF_ASC_NODE":169.4613,"ARG_OF_PERICENTER":271.6543,"MEAN_ANOMALY":88.4119,"EPHEMERIS_TYPE":0,"CLASSIFICATION_TYPE":"U","NORAD_CAT_ID":67119,"ELEMENT_SET_NO":999,"REV_AT_EPOCH":1310,"BSTAR":-0.011187519,"MEAN_MOTION_DOT":-0.00386697,"MEAN_MOTION_DDOT":0}]
