COSMOS 2550             
1 48865U 21056A   26067.47400841 -.00000192  00000+0 -13338-7 0  9992
2 48865  67.1451  44.6088 0008369 269.6014  90.4182 15.33829151263273
STARLINK-36179          
1 67119U 25299T   26068.60685009 -.00386697  00000+0 -11188-1 0  9997
2 67119  43.0006 169.4613 0001687 271.6543  88.4119 15.36441167 13103
